[{"OBJECT_NAME":"STARLINK-32802","OBJECT_ID":"2025-014D","EPOCH":"2025-08-13T14:00:01.999872","MEAN_MOTION":15.27530204,"ECCENTRICITY":0.0001475,"INCLINATION":43.0015,"RA_OF_ASC_NODE":249.3144,"ARG_OF_PERICENTER":276.6972,"MEAN_ANOMALY":105.4592,"EPHEMERIS_TYPE":0,"CLASSIFICATION_TYPE":"U","NORAD_CAT_ID":62738,"ELEMENT_SET_NO":999,"REV_AT_EPOCH":577,"BSTAR":0.0018182,"MEAN_MOTION_DOT":0.00050035,"MEAN_MOTION_DDOT":0},{"OBJECT_NAME":"STARLINK-32796","OBJECT_ID":"2025-014E","EPOCH":"2025-08-13T09:08:05.201664","MEAN_MOTION":15.27557536,"ECCENTRICITY":0.00015,"INCLINATION":42.9998,"RA_OF_ASC_NODE":250.4235,"ARG_OF_PERICENTER":285.7429,"MEAN_ANOMALY":74.3257,"EPHEMERIS_TYPE":0,"CLASSIFICATION_TYPE":"U","NORAD_CAT_ID":62739,"ELEMENT_SET_NO":999,"REV_AT_EPOCH":3140,"BSTAR":-2.4602e-5,"MEAN_MOTION_DOT":-9.39e-6,"MEAN_MOTION_DDOT":0},{"OBJECT_NAME":"STARLINK-32805","OBJECT_ID":"2025-014F","EPOCH":"2025-08-13T08:57:13.733568","MEAN_MOTION":15.27605389,"ECCENTRICITY":0.0001561,"INCLINATION":42.9981,"RA_OF_ASC_NODE":251.2354,"ARG_OF_PERICENTER":268.845,"MEAN_ANOMALY":91.2222,"EPHEMERIS_TYPE":0,"CLASSIFICATION_TYPE":"U","NORAD_CAT_ID":62740,"ELEMENT_SET_NO":999,"REV_AT_EPOCH":3139,"BSTAR":0.00077587,"MEAN_MOTION_DOT":0.00021166,"MEAN_MOTION_DDOT":0},{"OBJECT_NAME":"STARLINK-32770","OBJECT_ID":"2025-014G","EPOCH":"2025-08-13T01:35:50.180928","MEAN_MOTION":15.27598309,"ECCENTRICITY":0.0001293,"INCLINATION":43.004,"RA_OF_ASC_NODE":252.3729,"ARG_OF_PERICENTER":262.3048,"MEAN_ANOMALY":97.7656,"EPHEMERIS_TYPE":0,"CLASSIFICATION_TYPE":"U","NORAD_CAT_ID":62741,"ELEMENT_SET_NO":999,"REV_AT_EPOCH":3135,"BSTAR":0.00057454,"MEAN_MOTION_DOT":0.0001559,"MEAN_MOTION_DDOT":0},{"OBJECT_NAME":"STARLINK-32775","OBJECT_ID":"2025-014H","EPOCH":"2025-08-13T08:09:06.734592","MEAN_MOTION":15.27604944,"ECCENTRICITY":3.01e-5,"INCLINATION":43.0003,"RA_OF_ASC_NODE":250.9746,"ARG_OF_PERICENTER":259.0766,"MEAN_ANOMALY":101.0052,"EPHEMERIS_TYPE":0,"CLASSIFICATION_TYPE":"U","NORAD_CAT_ID":62742,"ELEMENT_SET_NO":999,"REV_AT_EPOCH":3139,"BSTAR":0.00095593,"MEAN_MOTION_DOT":0.00026156,"MEAN_MOTION_DDOT":0},{"OBJECT_NAME":"STARLINK-32800","OBJECT_ID":"2025-014J","EPOCH":"2025-08-13T10:35:31.255872","MEAN_MOTION":15.2759601,"ECCENTRICITY":0.0001951,"INCLINATION":42.9994,"RA_OF_ASC_NODE":257.8065,"ARG_OF_PERICENTER":268.4635,"MEAN_ANOMALY":91.5993,"EPHEMERIS_TYPE":0,"CLASSIFICATION_TYPE":"U","NORAD_CAT_ID":62743,"ELEMENT_SET_NO":999,"REV_AT_EPOCH":3132,"BSTAR":0.00016524,"MEAN_MOTION_DOT":4.29e-5,"MEAN_MOTION_DDOT":0},{"OBJECT_NAME":"STARLINK-32758","OBJECT_ID":"2025-014K","EPOCH":"2025-08-13T01:51:48.445920","MEAN_MOTION":15.27609216,"ECCENTRICITY":0.0001214,"INCLINATION":43.0004,"RA_OF_ASC_NODE":255.9148,"ARG_OF_PERICENTER":267.0097,"MEAN_ANOMALY":93.0616,"EPHEMERIS_TYPE":0,"CLASSIFICATION_TYPE":"U","NORAD_CAT_ID":62744,"ELEMENT_SET_NO":999,"REV_AT_EPOCH":3131,"BSTAR":0.00092624,"MEAN_MOTION_DOT":0.00025336,"MEAN_MOTION_DDOT":0},{"OBJECT_NAME":"STARLINK-32746","OBJECT_ID":"2025-014L","EPOCH":"2025-08-13T09:02:35.229696","MEAN_MOTION":15.27594133,"ECCENTRICITY":0.0001687,"INCLINATION":43,"RA_OF_ASC_NODE":250.3929,"ARG_OF_PERICENTER":261.4898,"MEAN_ANOMALY":98.5762,"EPHEMERIS_TYPE":0,"CLASSIFICATION_TYPE":"U","NORAD_CAT_ID":62745,"ELEMENT_SET_NO":999,"REV_AT_EPOCH":3140,"BSTAR":0.00075528,"MEAN_MOTION_DOT":0.00020589,"MEAN_MOTION_DDOT":0},{"OBJECT_NAME":"STARLINK-32780","OBJECT_ID":"2025-014M","EPOCH":"2025-08-13T10:29:31.488864","MEAN_MOTION":15.27611399,"ECCENTRICITY":0.000147,"INCLINATION":42.9987,"RA_OF_ASC_NODE":250.8508,"ARG_OF_PERICENTER":276.1408,"MEAN_ANOMALY":83.9276,"EPHEMERIS_TYPE":0,"CLASSIFICATION_TYPE":"U","NORAD_CAT_ID":62746,"ELEMENT_SET_NO":999,"REV_AT_EPOCH":3140,"BSTAR":0.00075166,"MEAN_MOTION_DOT":0.00020499,"MEAN_MOTION_DDOT":0},{"OBJECT_NAME":"STARLINK-32765","OBJECT_ID":"2025-014N","EPOCH":"2025-08-13T08:23:54.596544","MEAN_MOTION":15.27572834,"ECCENTRICITY":0.0002714,"INCLINATION":43.0048,"RA_OF_ASC_NODE":251.0589,"ARG_OF_PERICENTER":279.1521,"MEAN_ANOMALY":80.9024,"EPHEMERIS_TYPE":0,"CLASSIFICATION_TYPE":"U","NORAD_CAT_ID":62747,"ELEMENT_SET_NO":999,"REV_AT_EPOCH":3139,"BSTAR":0.001017,"MEAN_MOTION_DOT":0.00027824,"MEAN_MOTION_DDOT":0},{"OBJECT_NAME":"STARLINK-32762","OBJECT_ID":"2025-014P","EPOCH":"2025-08-13T03:11:09.094560","MEAN_MOTION":15.27599756,"ECCENTRICITY":9.71e-5,"INCLINATION":43.0003,"RA_OF_ASC_NODE":255.4672,"ARG_OF_PERICENTER":272.9153,"MEAN_ANOMALY":87.1588,"EPHEMERIS_TYPE":0,"CLASSIFICATION_TYPE":"U","NORAD_CAT_ID":62748,"ELEMENT_SET_NO":999,"REV_AT_EPOCH":3132,"BSTAR":0.00063277,"MEAN_MOTION_DOT":0.00017201,"MEAN_MOTION_DDOT":0},{"OBJECT_NAME":"STARLINK-32761","OBJECT_ID":"2025-014Q","EPOCH":"2025-08-13T03:14:51.159840","MEAN_MOTION":15.27602136,"ECCENTRICITY":0.000128,"INCLINATION":43.0019,"RA_OF_ASC_NODE":255.4876,"ARG_OF_PERICENTER":263.3445,"MEAN_ANOMALY":96.7261,"EPHEMERIS_TYPE":0,"CLASSIFICATION_TYPE":"U","NORAD_CAT_ID":62749,"ELEMENT_SET_NO":999,"REV_AT_EPOCH":3132,"BSTAR":0.0006268,"MEAN_MOTION_DOT":0.00017038,"MEAN_MOTION_DDOT":0},{"OBJECT_NAME":"STARLINK-32763","OBJECT_ID":"2025-014R","EPOCH":"2025-08-13T03:06:17.385696","MEAN_MOTION":15.2759827,"ECCENTRICITY":0.000106,"INCLINATION":43.0004,"RA_OF_ASC_NODE":251.9766,"ARG_OF_PERICENTER":252.9732,"MEAN_ANOMALY":107.1004,"EPHEMERIS_TYPE":0,"CLASSIFICATION_TYPE":"U","NORAD_CAT_ID":62750,"ELEMENT_SET_NO":999,"REV_AT_EPOCH":3136,"BSTAR":0.00060785,"MEAN_MOTION_DOT":0.00016511,"MEAN_MOTION_DDOT":0},{"OBJECT_NAME":"STARLINK-32759","OBJECT_ID":"2025-014S","EPOCH":"2025-08-13T08:43:34.974336","MEAN_MOTION":15.2760697,"ECCENTRICITY":0.0001594,"INCLINATION":42.9981,"RA_OF_ASC_NODE":254.6205,"ARG_OF_PERICENTER":263.273,"MEAN_ANOMALY":96.794,"EPHEMERIS_TYPE":0,"CLASSIFICATION_TYPE":"U","NORAD_CAT_ID":62751,"ELEMENT_SET_NO":999,"REV_AT_EPOCH":3135,"BSTAR":0.00074913,"MEAN_MOTION_DOT":0.00020427,"MEAN_MOTION_DDOT":0},{"OBJECT_NAME":"STARLINK-32756","OBJECT_ID":"2025-014T","EPOCH":"2025-08-13T02:42:27.095904","MEAN_MOTION":15.27598094,"ECCENTRICITY":0.00012,"INCLINATION":42.9981,"RA_OF_ASC_NODE":252.7154,"ARG_OF_PERICENTER":268.4031,"MEAN_ANOMALY":91.6683,"EPHEMERIS_TYPE":0,"CLASSIFICATION_TYPE":"U","NORAD_CAT_ID":62752,"ELEMENT_SET_NO":999,"REV_AT_EPOCH":3135,"BSTAR":0.00054742,"MEAN_MOTION_DOT":0.0001484,"MEAN_MOTION_DDOT":0},{"OBJECT_NAME":"STARLINK-32751","OBJECT_ID":"2025-014U","EPOCH":"2025-08-13T10:24:00.016128","MEAN_MOTION":15.27606534,"ECCENTRICITY":0.0001534,"INCLINATION":42.9988,"RA_OF_ASC_NODE":250.8217,"ARG_OF_PERICENTER":293.5805,"MEAN_ANOMALY":66.4885,"EPHEMERIS_TYPE":0,"CLASSIFICATION_TYPE":"U","NORAD_CAT_ID":62753,"ELEMENT_SET_NO":999,"REV_AT_EPOCH":3140,"BSTAR":0.00099063,"MEAN_MOTION_DOT":0.0002712,"MEAN_MOTION_DDOT":0},{"OBJECT_NAME":"STARLINK-32740","OBJECT_ID":"2025-014V","EPOCH":"2025-08-13T09:30:54.622656","MEAN_MOTION":15.28441644,"ECCENTRICITY":0.0001492,"INCLINATION":43.0039,"RA_OF_ASC_NODE":250.5508,"ARG_OF_PERICENTER":261.4093,"MEAN_ANOMALY":98.659,"EPHEMERIS_TYPE":0,"CLASSIFICATION_TYPE":"U","NORAD_CAT_ID":62754,"ELEMENT_SET_NO":999,"REV_AT_EPOCH":3140,"BSTAR":0.00093322,"MEAN_MOTION_DOT":0.00026195,"MEAN_MOTION_DDOT":0}]
