STARLINK-32802          
1 62738U 25014D   25225.58335648  .00050035  00000+0  18182-2 0  9990
2 62738  43.0015 249.3144 0001475 276.6972 105.4592 15.27530204  5778
STARLINK-32796          
1 62739U 25014E   25225.38061576 -.00000939  00000+0 -24602-4 0  9991
2 62739  42.9998 250.4235 0001500 285.7429  74.3257 15.27557536 31406
STARLINK-32805          
1 62740U 25014F   25225.37307562  .00021166  00000+0  77587-3 0  9992
2 62740  42.9981 251.2354 0001561 268.8450  91.2222 15.27605389 31392
STARLINK-32770          
1 62741U 25014G   25225.06655302  .00015590  00000+0  57454-3 0  9992
2 62741  43.0040 252.3729 0001293 262.3048  97.7656 15.27598309 31354
STARLINK-32775          
1 62742U 25014H   25225.33966128  .00026156  00000+0  95593-3 0  9990
2 62742  43.0003 250.9746 0000301 259.0766 101.0052 15.27604944 31392
STARLINK-32800          
1 62743U 25014J   25225.44133398  .00004290  00000+0  16524-3 0  9990
2 62743  42.9994 257.8065 0001951 268.4635  91.5993 15.27596010 31325
STARLINK-32758          
1 62744U 25014K   25225.07764405  .00025336  00000+0  92624-3 0  9998
2 62744  43.0004 255.9148 0001214 267.0097  93.0616 15.27609216 31311
STARLINK-32746          
1 62745U 25014L   25225.37679664  .00020589  00000+0  75528-3 0  9993
2 62745  43.0000 250.3929 0001687 261.4898  98.5762 15.27594133 31408
STARLINK-32780          
1 62746U 25014M   25225.43717001  .00020499  00000+0  75166-3 0  9997
2 62746  42.9987 250.8508 0001470 276.1408  83.9276 15.27611399 31401
STARLINK-32765          
1 62747U 25014N   25225.34993746  .00027824  00000+0  10170-2 0  9992
2 62747  43.0048 251.0589 0002714 279.1521  80.9024 15.27572834 31391
STARLINK-32762          
1 62748U 25014P   25225.13274415  .00017201  00000+0  63277-3 0  9990
2 62748  43.0003 255.4672 0000971 272.9153  87.1588 15.27599756 31328
STARLINK-32761          
1 62749U 25014Q   25225.13531435  .00017038  00000+0  62680-3 0  9994
2 62749  43.0019 255.4876 0001280 263.3445  96.7261 15.27602136 31325
STARLINK-32763          
1 62750U 25014R   25225.12936789  .00016511  00000+0  60785-3 0  9995
2 62750  43.0004 251.9766 0001060 252.9732 107.1004 15.27598270 31368
STARLINK-32759          
1 62751U 25014S   25225.36359924  .00020427  00000+0  74913-3 0  9991
2 62751  42.9981 254.6205 0001594 263.2730  96.7940 15.27606970 31352
STARLINK-32756          
1 62752U 25014T   25225.11281361  .00014840  00000+0  54742-3 0  9994
2 62752  42.9981 252.7154 0001200 268.4031  91.6683 15.27598094 31355
STARLINK-32751          
1 62753U 25014U   25225.43333352  .00027120  00000+0  99063-3 0  9998
2 62753  42.9988 250.8217 0001534 293.5805  66.4885 15.27606534 31409
STARLINK-32740          
1 62754U 25014V   25225.39646554  .00026195  00000+0  93322-3 0  9998
2 62754  43.0039 250.5508 0001492 261.4093  98.6590 15.28441644 31405
